{
    "links": {
        "self": "http://www.neowsapp.com/rest/v1/neo/3432564?api_key=iIulBulltgU6a56xZRHN4H3l9WmuAYTsLGpBGhQ2"
    },
    "id": "3432564",
    "neo_reference_id": "3432564",
    "name": "(2008 UD)",
    "designation": "2008 UD",
    "nasa_jpl_url": "http://ssd.jpl.nasa.gov/sbdb.cgi?sstr=3432564",
    "absolute_magnitude_h": 24.9,
    "estimated_diameter": {
        "kilometers": {
            "estimated_diameter_min": 0.0278326768,
            "estimated_diameter_max": 0.0622357573
        },
        "meters": {
            "estimated_diameter_min": 27.8326768072,
            "estimated_diameter_max": 62.2357573367
        },
        "miles": {
            "estimated_diameter_min": 0.0172944182,
            "estimated_diameter_max": 0.0386714948
        },
        "feet": {
            "estimated_diameter_min": 91.3145593761,
            "estimated_diameter_max": 204.1855621004
        }
    },
    "is_potentially_hazardous_asteroid": false,
    "close_approach_data": [
        {
            "close_approach_date": "2008-10-04",
            "close_approach_date_full": "2008-Oct-04 02:03",
            "epoch_date_close_approach": 1223085780000,
            "relative_velocity": {
                "kilometers_per_second": "10.4303808905",
                "kilometers_per_hour": "37549.3712056945",
                "miles_per_hour": "23331.7190138939"
            },
            "miss_distance": {
                "astronomical": "0.0762242326",
                "lunar": "29.6512264814",
                "kilometers": "11402982.839344562",
                "miles": "7085484.9780644756"
            },
            "orbiting_body": "Earth"
        }
    ],
    "orbital_data": {
        "orbit_id": "6",
        "orbit_determination_date": "2017-04-06 09:02:32",
        "first_observation_date": "2008-10-20",
        "last_observation_date": "2008-10-20",
        "data_arc_in_days": null,
        "observations_used": 22,
        "orbit_uncertainty": "9",
        "minimum_orbit_intersection": ".0641103",
        "jupiter_tisserand_invariant": "5.990",
        "epoch_osculation": "2454759.5",
        "eccentricity": ".3112471262322606",
        "semi_major_axis": "1.00574889665763",
        "inclination": "12.24074637487211",
        "ascending_node_longitude": "205.7292001341704",
        "orbital_period": "368.4111571182141",
        "perihelion_distance": ".6927124428616759",
        "perihelion_argument": "52.39243938351261",
        "aphelion_distance": "1.318785350453584",
        "perihelion_time": "2454662.178030823325",
        "mean_anomaly": "95.10002133936688",
        "mean_motion": ".9771691031726406",
        "equinox": "J2000",
        "orbit_class": {
            "orbit_class_type": "APO",
            "orbit_class_description": "Near-Earth asteroid orbits which cross the Earth’s orbit similar to that of 1862 Apollo",
            "orbit_class_range": "a (semi-major axis) > 1.0 AU; q (perihelion) < 1.017 AU"
        }
    },
    "is_sentry_object": false
}